{"type": "FeatureCollection", "features": [ {"type": "Feature", "properties": {"norad_id": 66558, "name": "STARLINK-35695", "group": "last-30-days", "lat": 41.925334634241665, "lon": -176.69239726865055, "alt_km": 410.53139876123805, "timestamp": "2025-12-14T20:40:30.514958+00:00", "meta": {"OBJECT_NAME": "STARLINK-35695", "OBJECT_ID": "2025-268B", "EPOCH": "2025-12-14T01:47:14.395488", "MEAN_MOTION": 15.50575573, "ECCENTRICITY": 0.00039742, "INCLINATION": 42.9996, "RA_OF_ASC_NODE": 113.3889, "ARG_OF_PERICENTER": 270.3907, "MEAN_ANOMALY": 89.6498, "EPHEMERIS_TYPE": 0, "CLASSIFICATION_TYPE": "U", "NORAD_CAT_ID": 66558, "ELEMENT_SET_NO": 999, "REV_AT_EPOCH": 483, "BSTAR": 0.0015135693, "MEAN_MOTION_DOT": 0.00089481, "MEAN_MOTION_DDOT": 0}, "tle": {"line1": "1 66558U 25268B   25348.07447217  .00089481  00000+0  15136-2 0  9994", "line2": "2 66558  42.9996 113.3889 0003974 270.3907  89.6498 15.50575573  4837"}}, "geometry": {"type": "Point", "coordinates": [-176.69239726865055, 41.925334634241665]}}, {"type": "Feature", "properties": {"norad_id": 66559, "name": "STARLINK-35419", "group": "last-30-days", "lat": 42.26175934488618, "lon": -174.010105375519, "alt_km": 409.0735750527556, "timestamp": "2025-12-14T20:40:30.514968+00:00", "meta": {"OBJECT_NAME": "STARLINK-35419", "OBJECT_ID": "2025-268C", "EPOCH": "2025-12-14T01:46:45.280416", "MEAN_MOTION": 15.5058629, "ECCENTRICITY": 0.0002097, "INCLINATION": 42.9995, "RA_OF_ASC_NODE": 113.3872, "ARG_OF_PERICENTER": 266.2883, "MEAN_ANOMALY": 93.7738, "EPHEMERIS_TYPE": 0, "CLASSIFICATION_TYPE": "U", "NORAD_CAT_ID": 66559, "ELEMENT_SET_NO": 999, "REV_AT_EPOCH": 483, "BSTAR": 0.0022108214, "MEAN_MOTION_DOT": 0.00131596, "MEAN_MOTION_DDOT": 0}, "tle": {"line1": "1 66559U 25268C   25348.07413519  .00131596  00000+0  22108-2 0  9995", "line2": "2 66559  42.9995 113.3872 0002097 266.2883  93.7738 15.50586290  4832"}}, "geometry": {"type": "Point", "coordinates": [-174.010105375519, 42.26175934488618]}}, {"type": "Feature", "properties": {"norad_id": 66560, "name": "STARLINK-35411", "group": "last-30-days", "lat": 42.50623435913837, "lon": -171.62181681679868, "alt_km": 409.1236038759607, "timestamp": "2025-12-14T20:40:30.514981+00:00", "meta": {"OBJECT_NAME": "STARLINK-35411", "OBJECT_ID": "2025-268D", "EPOCH": "2025-12-14T01:46:15.370464", "MEAN_MOTION": 15.5056456, "ECCENTRICITY": 0.00018763, "INCLINATION": 42.9996, "RA_OF_ASC_NODE": 113.3853, "ARG_OF_PERICENTER": 274.4813, "MEAN_ANOMALY": 85.5833, "EPHEMERIS_TYPE": 0, "CLASSIFICATION_TYPE": "U", "NORAD_CAT_ID": 66560, "ELEMENT_SET_NO": 999, "REV_AT_EPOCH": 483, "BSTAR": 0.0014804679, "MEAN_MOTION_DOT": 0.00087442, "MEAN_MOTION_DDOT": 0}, "tle": {"line1": "1 66560U 25268D   25348.07378901  .00087442  00000+0  14805-2 0  9997", "line2": "2 66560  42.9996 113.3853 0001876 274.4813  85.5833 15.50564560  4833"}}, "geometry": {"type": "Point", "coordinates": [-171.62181681679868, 42.50623435913837]}}, {"type": "Feature", "properties": {"norad_id": 66561, "name": "STARLINK-35305", "group": "last-30-days", "lat": 42.86667348569164, "lon": -166.30442063017918, "alt_km": 408.30959714864457, "timestamp": "2025-12-14T20:40:30.514992+00:00", "meta": {"OBJECT_NAME": "STARLINK-35305", "OBJECT_ID": "2025-268E", "EPOCH": "2025-12-14T01:45:16.679808", "MEAN_MOTION": 15.50577223, "ECCENTRICITY": 0.00010117, "INCLINATION": 42.9991, "RA_OF_ASC_NODE": 113.378, "ARG_OF_PERICENTER": 263.8473, "MEAN_ANOMALY": 96.2271, "EPHEMERIS_TYPE": 0, "CLASSIFICATION_TYPE": "U", "NORAD_CAT_ID": 66561, "ELEMENT_SET_NO": 999, "REV_AT_EPOCH": 483, "BSTAR": 0.0021671346, "MEAN_MOTION_DOT": 0.00128899, "MEAN_MOTION_DDOT": 0}, "tle": {"line1": "1 66561U 25268E   25348.07310972  .00128899  00000+0  21671-2 0  9993", "line2": "2 66561  42.9991 113.3780 0001011 263.8473  96.2271 15.50577223  4838"}}, "geometry": {"type": "Point", "coordinates": [-166.30442063017918, 42.86667348569164]}}, {"type": "Feature", "properties": {"norad_id": 66562, "name": "STARLINK-35579", "group": "last-30-days", "lat": 42.72953455332965, "lon": -168.7949768630718, "alt_km": 409.01272166745, "timestamp": "2025-12-14T20:40:30.515002+00:00", "meta": {"OBJECT_NAME": "STARLINK-35579", "OBJECT_ID": "2025-268F", "EPOCH": "2025-12-14T01:45:45.886464", "MEAN_MOTION": 15.50587495, "ECCENTRICITY": 0.00023012, "INCLINATION": 42.9997, "RA_OF_ASC_NODE": 113.381, "ARG_OF_PERICENTER": 279.1651, "MEAN_ANOMALY": 80.8949, "EPHEMERIS_TYPE": 0, "CLASSIFICATION_TYPE": "U", "NORAD_CAT_ID": 66562, "ELEMENT_SET_NO": 999, "REV_AT_EPOCH": 483, "BSTAR": 0.0024162498, "MEAN_MOTION_DOT": 0.00144095, "MEAN_MOTION_DDOT": 0}, "tle": {"line1": "1 66562U 25268F   25348.07344776  .00144095  00000+0  24162-2 0  9997", "line2": "2 66562  42.9997 113.3810 0002301 279.1651  80.8949 15.50587495  4833"}}, "geometry": {"type": "Point", "coordinates": [-168.7949768630718, 42.72953455332965]}}, {"type": "Feature", "properties": {"norad_id": 66563, "name": "STARLINK-35437", "group": "last-30-days", "lat": 42.95275881764923, "lon": -163.68371449823312, "alt_km": 408.16364656510996, "timestamp": "2025-12-14T20:40:30.515013+00:00", "meta": {"OBJECT_NAME": "STARLINK-35437", "OBJECT_ID": "2025-268G", "EPOCH": "2025-12-14T01:44:47.151744", "MEAN_MOTION": 15.50576271, "ECCENTRICITY": 8.549e-05, "INCLINATION": 42.9992, "RA_OF_ASC_NODE": 113.3749, "ARG_OF_PERICENTER": 268.479, "MEAN_ANOMALY": 91.5972, "EPHEMERIS_TYPE": 0, "CLASSIFICATION_TYPE": "U", "NORAD_CAT_ID": 66563, "ELEMENT_SET_NO": 999, "REV_AT_EPOCH": 483, "BSTAR": 0.0022627282, "MEAN_MOTION_DOT": 0.00134696, "MEAN_MOTION_DDOT": 0}, "tle": {"line1": "1 66563U 25268G   25348.07276796  .00134696  00000+0  22627-2 0  9994", "line2": "2 66563  42.9992 113.3749 0000854 268.4790  91.5972 15.50576271  4831"}}, "geometry": {"type": "Point", "coordinates": [-163.68371449823312, 42.95275881764923]}}, {"type": "Feature", "properties": {"norad_id": 66564, "name": "STARLINK-35358", "group": "last-30-days", "lat": 42.978247320178085, "lon": -160.9803277144833, "alt_km": 408.41718462024073, "timestamp": "2025-12-14T20:40:30.515025+00:00", "meta": {"OBJECT_NAME": "STARLINK-35358", "OBJECT_ID": "2025-268H", "EPOCH": "2025-12-14T01:44:17.239200", "MEAN_MOTION": 15.50586781, "ECCENTRICITY": 0.00013439, "INCLINATION": 42.999, "RA_OF_ASC_NODE": 113.3723, "ARG_OF_PERICENTER": 271.6128, "MEAN_ANOMALY": 88.4578, "EPHEMERIS_TYPE": 0, "CLASSIFICATION_TYPE": "U", "NORAD_CAT_ID": 66564, "ELEMENT_SET_NO": 999, "REV_AT_EPOCH": 483, "BSTAR": 0.0024037033, "MEAN_MOTION_DOT": 0.00143323, "MEAN_MOTION_DDOT": 0}, "tle": {"line1": "1 66564U 25268H   25348.07242175  .00143323  00000+0  24037-2 0  9993", "line2": "2 66564  42.9990 113.3723 0001343 271.6128  88.4578 15.50586781  4831"}}, "geometry": {"type": "Point", "coordinates": [-160.9803277144833, 42.978247320178085]}}, {"type": "Feature", "properties": {"norad_id": 66565, "name": "STARLINK-35893", "group": "last-30-days", "lat": 42.94672140793831, "lon": -158.51171188560306, "alt_km": 408.6323063230848, "timestamp": "2025-12-14T20:40:30.515036+00:00", "meta": {"OBJECT_NAME": "STARLINK-35893", "OBJECT_ID": "2025-268J", "EPOCH": "2025-12-14T01:43:47.566848", "MEAN_MOTION": 15.50570727, "ECCENTRICITY": 0.00014078, "INCLINATION": 42.9998, "RA_OF_ASC_NODE": 113.3696, "ARG_OF_PERICENTER": 281.3662, "MEAN_ANOMALY": 78.704, "EPHEMERIS_TYPE": 0, "CLASSIFICATION_TYPE": "U", "NORAD_CAT_ID": 66565, "ELEMENT_SET_NO": 999, "REV_AT_EPOCH": 483, "BSTAR": 0.0018912957, "MEAN_MOTION_DOT": 0.00112182, "MEAN_MOTION_DDOT": 0}, "tle": {"line1": "1 66565U 25268J   25348.07207832  .00112182  00000+0  18913-2 0  9990", "line2": "2 66565  42.9998 113.3696 0001407 281.3662  78.7040 15.50570727  4830"}}, "geometry": {"type": "Point", "coordinates": [-158.51171188560306, 42.94672140793831]}}, {"type": "Feature", "properties": {"norad_id": 66566, "name": "STARLINK-35871", "group": "last-30-days", "lat": 42.84707637351147, "lon": -155.75616344770856, "alt_km": 408.4712926873581, "timestamp": "2025-12-14T20:40:30.515046+00:00", "meta": {"OBJECT_NAME": "STARLINK-35871", "OBJECT_ID": "2025-268K", "EPOCH": "2025-12-14T01:43:17.772672", "MEAN_MOTION": 15.50587767, "ECCENTRICITY": 0.00013486, "INCLINATION": 42.9993, "RA_OF_ASC_NODE": 113.3665, "ARG_OF_PERICENTER": 261.2241, "MEAN_ANOMALY": 98.8466, "EPHEMERIS_TYPE": 0, "CLASSIFICATION_TYPE": "U", "NORAD_CAT_ID": 66566, "ELEMENT_SET_NO": 999, "REV_AT_EPOCH": 483, "BSTAR": 0.0022775912, "MEAN_MOTION_DOT": 0.00135656, "MEAN_MOTION_DDOT": 0}, "tle": {"line1": "1 66566U 25268K   25348.07173348  .00135656  00000+0  22776-2 0  9998", "line2": "2 66566  42.9993 113.3665 0001348 261.2241  98.8466 15.50587767  4833"}}, "geometry": {"type": "Point", "coordinates": [-155.75616344770856, 42.84707637351147]}}, {"type": "Feature", "properties": {"norad_id": 66567, "name": "STARLINK-35825", "group": "last-30-days", "lat": 42.69808320500176, "lon": -153.2518915057727, "alt_km": 408.27177226605545, "timestamp": "2025-12-14T20:40:30.515060+00:00", "meta": {"OBJECT_NAME": "STARLINK-35825", "OBJECT_ID": "2025-268L", "EPOCH": "2025-12-14T01:42:48.512448", "MEAN_MOTION": 15.50579443, "ECCENTRICITY": 9.118e-05, "INCLINATION": 42.9984, "RA_OF_ASC_NODE": 113.3641, "ARG_OF_PERICENTER": 288.5977, "MEAN_ANOMALY": 71.4784, "EPHEMERIS_TYPE": 0, "CLASSIFICATION_TYPE": "U", "NORAD_CAT_ID": 66567, "ELEMENT_SET_NO": 999, "REV_AT_EPOCH": 483, "BSTAR": 0.0020129356, "MEAN_MOTION_DOT": 0.00119569, "MEAN_MOTION_DDOT": 0}, "tle": {"line1": "1 66567U 25268L   25348.07139482  .00119569  00000+0  20129-2 0  9995", "line2": "2 66567  42.9984 113.3641 0000911 288.5977  71.4784 15.50579443  4833"}}, "geometry": {"type": "Point", "coordinates": [-153.2518915057727, 42.69808320500176]}}]}